{"type": "FeatureCollection", "features": [ {"type": "Feature", "properties": {"norad_id": 40701, "name": "GAOFEN-8", "group": "resource", "lat": -57.752219181141754, "lon": -17.520338756923483, "alt_km": 462.20068247692416, "timestamp": "2025-12-22T05:49:03.139500+00:00", "meta": {"OBJECT_NAME": "GAOFEN-8", "OBJECT_ID": "2015-030A", "EPOCH": "2025-12-21T20:58:55.193952", "MEAN_MOTION": 15.38835011, "ECCENTRICITY": 0.0012022, "INCLINATION": 97.6904, "RA_OF_ASC_NODE": 174.4614, "ARG_OF_PERICENTER": 107.2331, "MEAN_ANOMALY": 253.023, "EPHEMERIS_TYPE": 0, "CLASSIFICATION_TYPE": "U", "NORAD_CAT_ID": 40701, "ELEMENT_SET_NO": 999, "REV_AT_EPOCH": 58411, "BSTAR": 0.00044723, "MEAN_MOTION_DOT": 0.00017147, "MEAN_MOTION_DDOT": 0}, "tle": {"line1": "1 40701U 15030A   25355.87424993  .00017147  00000+0  44723-3 0  9999", "line2": "2 40701  97.6904 174.4614 0012022 107.2331 253.0230 15.38835011584119"}}, "geometry": {"type": "Point", "coordinates": [-17.520338756923483, -57.752219181141754]}}, {"type": "Feature", "properties": {"norad_id": 40718, "name": "CARBONITE 1 (CBNT-1)", "group": "resource", "lat": 57.91312970156444, "lon": 164.50624465959942, "alt_km": 615.2607778638021, "timestamp": "2025-12-22T05:49:03.139511+00:00", "meta": {"OBJECT_NAME": "CARBONITE 1 (CBNT-1)", "OBJECT_ID": "2015-032D", "EPOCH": "2025-12-21T19:50:08.579616", "MEAN_MOTION": 14.82783282, "ECCENTRICITY": 0.0015041, "INCLINATION": 97.6395, "RA_OF_ASC_NODE": 176.4701, "ARG_OF_PERICENTER": 151.7377, "MEAN_ANOMALY": 208.4656, "EPHEMERIS_TYPE": 0, "CLASSIFICATION_TYPE": "U", "NORAD_CAT_ID": 40718, "ELEMENT_SET_NO": 999, "REV_AT_EPOCH": 56305, "BSTAR": 0.00022646, "MEAN_MOTION_DOT": 1.784e-05, "MEAN_MOTION_DDOT": 0}, "tle": {"line1": "1 40718U 15032D   25355.82648819  .00001784  00000+0  22646-3 0  9999", "line2": "2 40718  97.6395 176.4701 0015041 151.7377 208.4656 14.82783282563054"}}, "geometry": {"type": "Point", "coordinates": [164.50624465959942, 57.91312970156444]}}, {"type": "Feature", "properties": {"norad_id": 40878, "name": "YAOGAN-27", "group": "resource", "lat": -3.5181567663640667, "lon": 164.80439764296796, "alt_km": 1201.9549330952532, "timestamp": "2025-12-22T05:49:03.139556+00:00", "meta": {"OBJECT_NAME": "YAOGAN-27", "OBJECT_ID": "2015-040A", "EPOCH": "2025-12-21T21:35:21.735168", "MEAN_MOTION": 13.16058919, "ECCENTRICITY": 0.0007581, "INCLINATION": 100.1006, "RA_OF_ASC_NODE": 345.105, "ARG_OF_PERICENTER": 263.9678, "MEAN_ANOMALY": 96.0572, "EPHEMERIS_TYPE": 0, "CLASSIFICATION_TYPE": "U", "NORAD_CAT_ID": 40878, "ELEMENT_SET_NO": 999, "REV_AT_EPOCH": 49434, "BSTAR": -0.0010104, "MEAN_MOTION_DOT": -4.26e-06, "MEAN_MOTION_DDOT": 0}, "tle": {"line1": "1 40878U 15040A   25355.89955712 -.00000426  00000+0 -10104-2 0  9994", "line2": "2 40878 100.1006 345.1050 0007581 263.9678  96.0572 13.16058919494343"}}, "geometry": {"type": "Point", "coordinates": [164.80439764296796, -3.5181567663640667]}}, {"type": "Feature", "properties": {"norad_id": 40894, "name": "GAOFEN-9 01", "group": "resource", "lat": -31.541194973945228, "lon": 39.52111415354769, "alt_km": 611.912961906919, "timestamp": "2025-12-22T05:49:03.139573+00:00", "meta": {"OBJECT_NAME": "GAOFEN-9 01", "OBJECT_ID": "2015-047A", "EPOCH": "2025-12-21T20:14:26.101824", "MEAN_MOTION": 14.82442807, "ECCENTRICITY": 0.0027651, "INCLINATION": 97.653, "RA_OF_ASC_NODE": 34.4053, "ARG_OF_PERICENTER": 4.9686, "MEAN_ANOMALY": 355.1797, "EPHEMERIS_TYPE": 0, "CLASSIFICATION_TYPE": "U", "NORAD_CAT_ID": 40894, "ELEMENT_SET_NO": 999, "REV_AT_EPOCH": 55391, "BSTAR": 0.00011597, "MEAN_MOTION_DOT": 8.84e-06, "MEAN_MOTION_DDOT": 0}, "tle": {"line1": "1 40894U 15047A   25355.84335766  .00000884  00000+0  11597-3 0  9999", "line2": "2 40894  97.6530  34.4053 0027651   4.9686 355.1797 14.82442807553910"}}, "geometry": {"type": "Point", "coordinates": [39.52111415354769, -31.541194973945228]}}, {"type": "Feature", "properties": {"norad_id": 41026, "name": "YAOGAN-28", "group": "resource", "lat": 64.8240132417477, "lon": -30.448340008738533, "alt_km": 477.77100782490925, "timestamp": "2025-12-22T05:49:03.139585+00:00", "meta": {"OBJECT_NAME": "YAOGAN-28", "OBJECT_ID": "2015-064A", "EPOCH": "2025-12-21T19:52:03.652320", "MEAN_MOTION": 15.24487616, "ECCENTRICITY": 0.0012647, "INCLINATION": 97.2814, "RA_OF_ASC_NODE": 133.3644, "ARG_OF_PERICENTER": 97.138, "MEAN_ANOMALY": 263.1296, "EPHEMERIS_TYPE": 0, "CLASSIFICATION_TYPE": "U", "NORAD_CAT_ID": 41026, "ELEMENT_SET_NO": 999, "REV_AT_EPOCH": 56363, "BSTAR": 0.00026355, "MEAN_MOTION_DOT": 6.421e-05, "MEAN_MOTION_DDOT": 0}, "tle": {"line1": "1 41026U 15064A   25355.82782005  .00006421  00000+0  26355-3 0  9997", "line2": "2 41026  97.2814 133.3644 0012647  97.1380 263.1296 15.24487616563634"}}, "geometry": {"type": "Point", "coordinates": [-30.448340008738533, 64.8240132417477]}}, {"type": "Feature", "properties": {"norad_id": 41038, "name": "YAOGAN-29", "group": "resource", "lat": -51.42456994360944, "lon": -170.73842309602392, "alt_km": 626.9770144029017, "timestamp": "2025-12-22T05:49:03.139596+00:00", "meta": {"OBJECT_NAME": "YAOGAN-29", "OBJECT_ID": "2015-069A", "EPOCH": "2025-12-21T20:40:37.081056", "MEAN_MOTION": 14.82889952, "ECCENTRICITY": 5.92e-05, "INCLINATION": 98.0207, "RA_OF_ASC_NODE": 19.0623, "ARG_OF_PERICENTER": 171.0936, "MEAN_ANOMALY": 189.0288, "EPHEMERIS_TYPE": 0, "CLASSIFICATION_TYPE": "U", "NORAD_CAT_ID": 41038, "ELEMENT_SET_NO": 999, "REV_AT_EPOCH": 54434, "BSTAR": -2.9186e-05, "MEAN_MOTION_DOT": -2.91e-06, "MEAN_MOTION_DDOT": 0}, "tle": {"line1": "1 41038U 15069A   25355.86154029 -.00000291  00000+0 -29186-4 0  9995", "line2": "2 41038  98.0207  19.0623 0000592 171.0936 189.0288 14.82889952544340"}}, "geometry": {"type": "Point", "coordinates": [-170.73842309602392, -51.42456994360944]}}, {"type": "Feature", "properties": {"norad_id": 41167, "name": "KENT RIDGE 1", "group": "resource", "lat": 3.566133160476953, "lon": -52.848854531364864, "alt_km": 498.3809055831225, "timestamp": "2025-12-22T05:49:03.139607+00:00", "meta": {"OBJECT_NAME": "KENT RIDGE 1", "OBJECT_ID": "2015-077B", "EPOCH": "2025-12-21T18:04:45.469920", "MEAN_MOTION": 15.21699918, "ECCENTRICITY": 0.0008539, "INCLINATION": 14.9785, "RA_OF_ASC_NODE": 144.2556, "ARG_OF_PERICENTER": 258.1757, "MEAN_ANOMALY": 101.7607, "EPHEMERIS_TYPE": 0, "CLASSIFICATION_TYPE": "U", "NORAD_CAT_ID": 41167, "ELEMENT_SET_NO": 999, "REV_AT_EPOCH": 55401, "BSTAR": 0.0001344, "MEAN_MOTION_DOT": 3.888e-05, "MEAN_MOTION_DDOT": 0}, "tle": {"line1": "1 41167U 15077B   25355.75330405  .00003888  00000+0  13440-3 0  9997", "line2": "2 41167  14.9785 144.2556 0008539 258.1757 101.7607 15.21699918554010"}}, "geometry": {"type": "Point", "coordinates": [-52.848854531364864, 3.566133160476953]}}, {"type": "Feature", "properties": {"norad_id": 41194, "name": "GAOFEN-4", "group": "resource", "lat": -0.09819818191312327, "lon": -75.94105904952725, "alt_km": 35790.06498838344, "timestamp": "2025-12-22T05:49:03.139620+00:00", "meta": {"OBJECT_NAME": "GAOFEN-4", "OBJECT_ID": "2015-083A", "EPOCH": "2025-12-19T15:27:26.627616", "MEAN_MOTION": 1.00273138, "ECCENTRICITY": 0.0002945, "INCLINATION": 0.1878, "RA_OF_ASC_NODE": 81.7841, "ARG_OF_PERICENTER": 93.4275, "MEAN_ANOMALY": 250.8523, "EPHEMERIS_TYPE": 0, "CLASSIFICATION_TYPE": "U", "NORAD_CAT_ID": 41194, "ELEMENT_SET_NO": 999, "REV_AT_EPOCH": 3672, "BSTAR": 0, "MEAN_MOTION_DOT": -3.11e-06, "MEAN_MOTION_DDOT": 0}, "tle": {"line1": "1 41194U 15083A   25353.64405819 -.00000311  00000+0  00000+0 0  9995", "line2": "2 41194   0.1878  81.7841 0002945  93.4275 250.8523  1.00273138 36722"}}, "geometry": {"type": "Point", "coordinates": [-75.94105904952725, -0.09819818191312327]}}, {"type": "Feature", "properties": {"norad_id": 41240, "name": "JASON-3", "group": "resource", "lat": 62.58294833890996, "lon": -163.15324851649817, "alt_km": 1309.3627076825505, "timestamp": "2025-12-22T05:49:03.139632+00:00", "meta": {"OBJECT_NAME": "JASON-3", "OBJECT_ID": "2016-002A", "EPOCH": "2025-12-21T20:06:08.125056", "MEAN_MOTION": 12.87626905, "ECCENTRICITY": 0.0007242, "INCLINATION": 66.04, "RA_OF_ASC_NODE": 138.6968, "ARG_OF_PERICENTER": 271.3451, "MEAN_ANOMALY": 88.6738, "EPHEMERIS_TYPE": 0, "CLASSIFICATION_TYPE": "U", "NORAD_CAT_ID": 41240, "ELEMENT_SET_NO": 999, "REV_AT_EPOCH": 46441, "BSTAR": 1.7067e-05, "MEAN_MOTION_DOT": -5.8e-07, "MEAN_MOTION_DDOT": 0}, "tle": {"line1": "1 41240U 16002A   25355.83759404 -.00000058  00000+0  17067-4 0  9998", "line2": "2 41240  66.0400 138.6968 0007242 271.3451  88.6738 12.87626905464413"}}, "geometry": {"type": "Point", "coordinates": [-163.15324851649817, 62.58294833890996]}}, {"type": "Feature", "properties": {"norad_id": 41335, "name": "SENTINEL-3A", "group": "resource", "lat": 6.450904660382158, "lon": -117.89384742561441, "alt_km": 804.6040896879795, "timestamp": "2025-12-22T05:49:03.139643+00:00", "meta": {"OBJECT_NAME": "SENTINEL-3A", "OBJECT_ID": "2016-011A", "EPOCH": "2025-12-21T18:54:32.234976", "MEAN_MOTION": 14.26733951, "ECCENTRICITY": 8.96e-05, "INCLINATION": 98.6302, "RA_OF_ASC_NODE": 60.6741, "ARG_OF_PERICENTER": 94.6296, "MEAN_ANOMALY": 265.4987, "EPHEMERIS_TYPE": 0, "CLASSIFICATION_TYPE": "U", "NORAD_CAT_ID": 41335, "ELEMENT_SET_NO": 999, "REV_AT_EPOCH": 51276, "BSTAR": 6.3872e-05, "MEAN_MOTION_DOT": 1.11e-06, "MEAN_MOTION_DDOT": 0}, "tle": {"line1": "1 41335U 16011A   25355.78787309  .00000111  00000+0  63872-4 0  9996", "line2": "2 41335  98.6302  60.6741 0000896  94.6296 265.4987 14.26733951512762"}}, "geometry": {"type": "Point", "coordinates": [-117.89384742561441, 6.450904660382158]}}]}